#dV2023  1 17 10  0  0.00000000    1682       CTS   FIT  GFZ
## 2245 208800.00000000    30.00000000 59961 0.4166666666667
+    1   L64  0  0  0  0  0  0  0  0  0  0  0  0  0  0  0  0
+          0  0  0  0  0  0  0  0  0  0  0  0  0  0  0  0  0
+          0  0  0  0  0  0  0  0  0  0  0  0  0  0  0  0  0
+          0  0  0  0  0  0  0  0  0  0  0  0  0  0  0  0  0
+          0  0  0  0  0  0  0  0  0  0  0  0  0  0  0  0  0
++         0  0  0  0  0  0  0  0  0  0  0  0  0  0  0  0  0
++         0  0  0  0  0  0  0  0  0  0  0  0  0  0  0  0  0
++         0  0  0  0  0  0  0  0  0  0  0  0  0  0  0  0  0
++         0  0  0  0  0  0  0  0  0  0  0  0  0  0  0  0  0
++         0  0  0  0  0  0  0  0  0  0  0  0  0  0  0  0  0
%c L  cc GPS ccc cccc cccc cccc cccc ccccc ccccc ccccc ccccc
%c cc cc ccc ccc cccc cccc cccc cccc ccccc ccccc ccccc ccccc
%f  0.0000000  0.000000000  0.00000000000  0.000000000000000
%f  0.0000000  0.000000000  0.00000000000  0.000000000000000
%i    0    0    0    0      0      0      0      0         0
%i    0    0    0    0      0      0      0      0         0
/* CCCCCCCCCCCCCCCCCCCCCCCCCCCCCCCCCCCCCCCCCCCCCCCCCCCCCCCCCCCCCCCCCCCCCCCCCCCCC
/* C                             GFZ RSO-ORBIT                                 C
/* C DOI: https://doi.org/10.5880/GFZ_ORBIT/RSO/L64_G_v02                      C
/* C                                                                           C
/* C DORIS        RMS: not applicable                                          C
/* C GNSS-E Code  RMS: not applicable                                          C
/* C GNSS-E Phase RMS: not applicable                                          C
/* C GNSS-G Code  RMS:  49.283 [cm]   Obs.acc.:     14279 Obs.eli.:      1115  C
/* C GNSS-G Phase RMS:   4.078 [mm]   Obs.acc.:     14279 Obs.eli.:      1115  C
/* C SLR          RMS:   1.743 [cm]   Obs.acc.:        67 Obs.eli.:         0  C
/* C                                                                           C
/* CCCCCCCCCCCCCCCCCCCCCCCCCCCCCCCCCCCCCCCCCCCCCCCCCCCCCCCCCCCCCCCCCCCCCCCCCCCCC
*  2023  1 17 18  4 30.00000000
PL64   3642.954130  -1109.438828   5719.696473   8081.592493
VL64 -60712.062525  18115.245108  42111.156117 999999.999999
*  2023  1 17 18  5  0.00000000
PL64   3458.973454  -1054.093406   5842.846967   8082.052207
VL64 -61929.995118  18779.208796  39981.660744 999999.999999
*  2023  1 17 18  5 30.00000000
PL64   3271.445128   -996.779051   5959.542545   8082.511837
VL64 -63076.961332  19427.696768  37808.274600 999999.999999
*  2023  1 17 18  6  0.00000000
PL64   3080.583817   -937.543718   6069.655118   8082.971390
VL64 -64151.798788  20059.692742  35593.393525 999999.999999
*  2023  1 17 18  6 30.00000000
PL64   2886.607548   -876.438390   6173.063848 999999.999999
VL64 -65153.426496  20674.193144  33339.455868 999999.999999
*  2023  1 17 18  7  0.00000000
PL64   2689.737469   -813.517044   6269.655276   8083.890395
VL64 -66080.846017  21270.208583  31048.942474 999999.999999
*  2023  1 17 18  7 30.00000000
PL64   2490.197595   -748.836598   6359.323447   8084.349828
VL64 -66933.145019  21846.766092  28724.374259 999999.999999
*  2023  1 17 18  8  0.00000000
PL64   2288.214547   -682.456861   6441.970021   8084.809211
VL64 -67709.498713  22402.910701  26368.306397 999999.999999
*  2023  1 17 18  8 30.00000000
PL64   2084.017290   -614.440483   6517.504371   8085.268817
VL64 -68409.168426  22937.705928  23983.324930 999999.999999
*  2023  1 17 18  9  0.00000000
PL64   1877.836876   -544.852893   6585.843672   8085.728521
VL64 -69031.501993  23450.234791  21572.045658 999999.999999
*  2023  1 17 18  9 30.00000000
PL64   1669.906181   -473.762237   6646.912989   8086.188052
VL64 -69575.935277  23939.601620  19137.111605 999999.999999
*  2023  1 17 18 10  0.00000000
PL64   1460.459642   -401.239318   6700.645352   8086.647522
VL64 -70041.993354  24404.933781  16681.188906 999999.999999
*  2023  1 17 18 10 30.00000000
PL64   1249.732986   -327.357519   6746.981817   8087.107036
VL64 -70429.289668  24845.382353  14206.961624 999999.999999
*  2023  1 17 18 11  0.00000000
PL64   1037.962970   -252.192734   6785.871517   8087.566579
VL64 -70737.522766  25260.122401  11717.130228 999999.999999
*  2023  1 17 18 11 30.00000000
PL64    825.387132   -175.823293   6817.271713   8088.026103
VL64 -70966.476544  25648.354768   9214.413227 999999.999999
*  2023  1 17 18 12  0.00000000
PL64    612.243521    -98.329885   6841.147845   8088.485660
VL64 -71116.023418  26009.308241   6701.544613 999999.999999
*  2023  1 17 18 12 30.00000000
PL64    398.770440    -19.795466   6857.473573   8088.945163
VL64 -71186.124637  26342.240492   4181.268559 999999.999999
*  2023  1 17 18 13  0.00000000
PL64    185.206173     59.694823   6866.230799   8089.404676
VL64 -71176.828885  26646.438824   1656.336065 999999.999999
*  2023  1 17 18 13 30.00000000
PL64    -28.211269    140.053750   6867.409688   8089.864175
VL64 -71088.271771  26921.221413   -870.497162 999999.999999
*  2023  1 17 18 14  0.00000000
PL64   -241.244416    221.192085   6861.008673   8090.323684
VL64 -70920.675889  27165.938540  -3396.473353 999999.999999
*  2023  1 17 18 14 30.00000000
PL64   -453.656592    303.018698   6847.034462   8090.783114
VL64 -70674.350205  27379.973471  -5918.835525 999999.999999
*  2023  1 17 18 15  0.00000000
PL64   -665.212179    385.440660   6825.502028   8091.242540
VL64 -70349.689629  27562.743538  -8434.829651 999999.999999
*  2023  1 17 18 15 30.00000000
PL64   -875.676873    468.363346   6796.434601   8091.701834
VL64 -69947.175145  27713.701373 -10941.707756 999999.999999
*  2023  1 17 18 16  0.00000000
PL64  -1084.817939    551.690543   6759.863636   8092.161172
VL64 -69467.372534  27832.335496 -13436.731697 999999.999999
*  2023  1 17 18 16 30.00000000
PL64  -1292.404466    635.324559   6715.828792   8092.620432
VL64 -68910.930379  27918.170730 -15917.174611 999999.999999
*  2023  1 17 18 17  0.00000000
PL64  -1498.207611    719.166330   6664.377885   8093.079339
VL64 -68278.580542  27970.769734 -18380.321590 999999.999999
*  2023  1 17 18 17 30.00000000
PL64  -1702.000855    803.115542   6605.566858   8093.538475
VL64 -67571.139394  27989.734767 -20823.473660 999999.999999
*  2023  1 17 18 18  0.00000000
PL64  -1903.560253    887.070746   6539.459717   8093.997760
VL64 -66789.506121  27974.708180 -23243.952751 999999.999999
*  2023  1 17 18 18 30.00000000
PL64  -2102.664677    970.929480   6466.128470   8094.457171
VL64 -65934.660103  27925.372604 -25639.104035 999999.999999
*  2023  1 17 18 19  0.00000000
PL64  -2299.096056   1054.588394   6385.653052   8094.916607
VL64 -65007.659763  27841.451698 -28006.297254 999999.999999
*  2023  1 17 18 19 30.00000000
PL64  -2492.639615   1137.943370   6298.121249   8095.376160
VL64 -64009.642201  27722.711175 -30342.928859 999999.999999
*  2023  1 17 18 20  0.00000000
PL64  -2683.084105   1220.889649   6203.628615   8095.835679
VL64 -62941.822578  27568.959764 -32646.424981 999999.999999
*  2023  1 17 18 20 30.00000000
PL64  -2870.222038   1303.321968   6102.278377   8096.295199
VL64 -61805.492956  27380.049774 -34914.244296 999999.999999
*  2023  1 17 18 21  0.00000000
PL64  -3053.849918   1385.134684   5994.181334   8096.754753
VL64 -60602.021513  27155.877525 -37143.880485 999999.999999
*  2023  1 17 18 21 30.00000000
PL64  -3233.768467   1466.221910   5879.455747   8097.214295
VL64 -59332.851694  26896.383889 -39332.865603 999999.999999
*  2023  1 17 18 22  0.00000000
PL64  -3409.782844   1546.477651   5758.227219   8097.673811
VL64 -57999.499833  26601.555041 -41478.773510 999999.999999
*  2023  1 17 18 22 30.00000000
PL64  -3581.702868   1625.795936   5630.628567   8098.133368
VL64 -56603.552752  26271.423354 -43579.221745 999999.999999
*  2023  1 17 18 23  0.00000000
PL64  -3749.343220   1704.070966   5496.799687   8098.592911
VL64 -55146.667194  25906.068039 -45631.873323 999999.999999
*  2023  1 17 18 23 30.00000000
PL64  -3912.523656   1781.197245   5356.887413   8099.052461
VL64 -53630.569231  25505.615275 -47634.440148 999999.999999
*  2023  1 17 18 24  0.00000000
PL64  -4071.069214   1857.069731   5211.045368   8099.511969
VL64 -52057.052440  25070.237745 -49584.686737 999999.999999
*  2023  1 17 18 24 30.00000000
PL64  -4224.810409   1931.583964   5059.433795   8099.971525
VL64 -50427.975308  24600.153958 -51480.433772 999999.999999
*  2023  1 17 18 25  0.00000000
PL64  -4373.583424   2004.636212   4902.219387   8100.431091
VL64 -48745.258067  24095.628896 -53319.560927 999999.999999
*  2023  1 17 18 25 30.00000000
PL64  -4517.230294   2076.123608   4739.575110   8100.890586
VL64 -47010.879283  23556.975992 -55100.008955 999999.999999
*  2023  1 17 18 26  0.00000000
PL64  -4655.599071   2145.944300   4571.680012   8101.350061
VL64 -45226.873671  22984.556818 -56819.780278 999999.999999
*  2023  1 17 18 26 30.00000000
PL64  -4788.543998   2213.997589   4398.719042   8101.809475
VL64 -43395.332401  22378.779440 -58476.940576 999999.999999
*  2023  1 17 18 27  0.00000000
PL64  -4915.925674   2280.184071   4220.882849   8102.268977
VL64 -41518.401392  21740.098409 -60069.623423 999999.999999
*  2023  1 17 18 27 30.00000000
PL64  -5037.611211   2344.405776   4038.367577   8102.728449
VL64 -39598.276718  21069.014975 -61596.033226 999999.999999
*  2023  1 17 18 28  0.00000000
PL64  -5153.474382   2406.566305   3851.374649   8103.187900
VL64 -37637.201518  20366.077058 -63054.446006 999999.999999
*  2023  1 17 18 28 30.00000000
PL64  -5263.395757   2466.570977   3660.110551   8103.647430
VL64 -35637.464319  19631.879256 -64443.210772 999999.999999
*  2023  1 17 18 29  0.00000000
PL64  -5367.262837   2524.326960   3464.786610   8104.107029
VL64 -33601.397404  18867.062696 -65760.752011 999999.999999
*  2023  1 17 18 29 30.00000000
PL64  -5464.970184   2579.743419   3265.618762   8104.566587
VL64 -31531.374227  18072.314311 -67005.572869 999999.999999
EOF
